GPS BIIR-2  (PRN 13)    
1 24876U 97035A   20360.89461215  .00000106  00000-0  00000-0 0  9995
2 24876  55.4635 176.6821 0046976  58.5239 301.9610  2.00562270171858
GPS BIIR-4  (PRN 20)    
1 26360U 00025A   20360.55497929 -.00000046  00000-0  00000-0 0  9996
2 26360  53.6519 101.2212 0057989 162.7561 293.3411  2.00564120151160
GPS BIIR-5  (PRN 28)    
1 26407U 00040A   20360.92286237 -.00000060  00000-0  00000-0 0  9990
2 26407  55.8522 294.6091 0184227 281.7246  41.1470  2.00564485149840
GPS BIIR-8  (PRN 16)    
1 27663U 03005A   20360.79647433 -.00000061  00000-0  00000-0 0  9994
2 27663  55.9060 294.4073 0118110  35.5547 320.8781  2.00569685131208
GPS BIIR-9  (PRN 21)    
1 27704U 03010A   20360.53300405 -.00000081  00000-0  00000-0 0  9995
2 27704  54.7521  45.2037 0243215 289.7505  92.4031  2.00555894130001
GPS BIIR-10 (PRN 22)    
1 28129U 03058A   20360.58929404 -.00000041  00000-0  00000-0 0  9996
2 28129  53.4623 103.8988 0070075 298.2972  60.9839  2.00566370124687
GPS BIIR-11 (PRN 19)    
1 28190U 04009A   20360.82709664 -.00000072  00000-0  00000-0 0  9996
2 28190  56.2388 355.2406 0087406 101.3108  71.3670  2.00571672122849
GPS BIIR-13 (PRN 02)    
1 28474U 04045A   20360.69563181 -.00000079  00000-0  00000-0 0  9995
2 28474  55.0913  45.1367 0204877 270.0915  83.1154  2.00574702118322
GPS BIIRM-1 (PRN 17)    
1 28874U 05038A   20360.81156747 -.00000072  00000-0  00000-0 0  9995
2 28874  56.3310 352.6440 0138422 268.4855 272.2534  2.00582239111730
GPS BIIRM-2 (PRN 31)    
1 29486U 06042A   20360.67501030  .00000063  00000-0  00000-0 0  9993
2 29486  54.8085 230.7394 0099015  11.4172 354.4041  2.00558773104327
GPS BIIRM-3 (PRN 12)    
1 29601U 06052A   20360.11413085 -.00000065  00000-0  00000-0 0  9997
2 29601  55.8981 293.3565 0079258  66.2078 294.6286  2.00574436103292
GPS BIIRM-4 (PRN 15)    
1 32260U 07047A   20360.42890415  .00000085  00000-0  00000-0 0  9998
2 32260  53.2099 162.8786 0129192  54.4871 306.7127  2.00549053 96744
GPS BIIRM-5 (PRN 29)    
1 32384U 07062A   20360.42529271 -.00000072  00000-0  00000-0 0  9998
2 32384  56.4328 353.3553 0012674 134.6314 355.0711  2.00560390 95404
GPS BIIRM-6 (PRN 07)    
1 32711U 08012A   20360.33790169  .00000060  00000-0  00000-0 0  9990
2 32711  54.5583 229.8118 0144386 225.5598 133.3340  2.00569821 93663
GPS BIIRM-8 (PRN 05)    
1 35752U 09043A   20360.80051737 -.00000035  00000-0  00000-0 0  9999
2 35752  54.7004 107.2847 0058501  49.7566 309.2802  2.00550149 83257
GPS BIIF-1  (PRN 25)    
1 36585U 10022A   20360.40964181 -.00000059  00000-0  00000-0 0  9991
2 36585  55.1718 289.2442 0093608  52.4071 129.8513  2.00561672 77486
GPS BIIF-2  (PRN 01)    
1 37753U 11036A   20360.54354958 -.00000078  00000-0  00000-0 0  9996
2 37753  56.3042  49.7635 0100167  46.2122 320.7459  2.00561907 69176
GPS BIIF-3  (PRN 24)    
1 38833U 12053A   20360.01923632  .00000064  00000-0  00000-0 0  9993
2 38833  53.6043 225.4871 0105856  39.9404 320.9178  2.00569116 59432
GPS BIIF-4  (PRN 27)    
1 39166U 13023A   20360.38103270 -.00000074  00000-0  00000-0 0  9991
2 39166  55.9837 349.2383 0086162  30.9762 329.5466  2.00563917 55778
GPS BIIF-5  (PRN 30)    
1 39533U 14008A   20360.37868256  .00000057  00000-0  00000-0 0  9994
2 39533  53.7133 230.9259 0048012 199.4424 160.4577  2.00552134 49594
GPS BIIF-6  (PRN 06)    
1 39741U 14026A   20360.15862762 -.00000081  00000-0  00000-0 0  9995
2 39741  56.2756  49.3057 0023719 292.3015  67.5040  2.00563654 48420
GPS BIIF-7  (PRN 09)    
1 40105U 14045A   20360.24996244  .00000096  00000-0  00000-0 0  9990
2 40105  54.6078 168.3304 0018052 103.6721 256.5411  2.00572491 45994
GPS BIIF-8  (PRN 03)    
1 40294U 14068A   20360.62313324 -.00000030  00000-0  00000-0 0  9997
2 40294  55.4491 109.2856 0030774  48.2295 312.0131  2.00562268 45103
GPS BIIF-9  (PRN 26)    
1 40534U 15013A   20359.76013813 -.00000062  00000-0  00000-0 0  9993
2 40534  54.0820 287.0233 0054562  11.0157 349.1185  2.00557068 41705
GPS BIIF-11 (PRN 10)    
1 41019U 15062A   20359.96986229 -.00000028  00000-0  00000-0 0  9990
2 41019  55.4434 109.1423 0064253 210.9653 148.6374  2.00563987 37719
GPS BIIF-12 (PRN 32)    
1 41328U 16007A   20360.06298370  .00000098  00000-0  00000-0 0  9995
2 41328  54.8388 168.8736 0045018 221.0499 138.6239  2.00569874 35775
GPS BIII-1  (PRN 04)    
1 43873U 18109A   20360.68083764  .00000099  00000-0  00000-0 0  9995
2 43873  55.0200 171.1553 0010451 196.8155 145.4620  2.00571874 15000
GPS BIII-2  (PRN 18)    
1 44506U 19056A   20360.78704594 -.00000078  00000-0  00000-0 0  9991
2 44506  55.3681  50.5582 0011773 183.2128 133.8413  2.00561134  9967
GPS BIII-3  (PRN 23)    
1 45854U 20041A   20360.43086647 -.00000033  00000-0  00000-0 0  9999
2 45854  55.1541 107.8243 0009318 135.0412 225.0155  2.00568029  3927
